NORAD_CAT_ID,OBJECT_NAME,OBJECT_TYPE,EPOCH,MEAN_MOTION,ECCENTRICITY,INCLINATION,RA_OF_ASC_NODE,ARG_OF_PERICENTER,MEAN_ANOMALY,BSTAR,MEAN_MOTION_DOT,MEAN_MOTION_DDOT,TLE_LINE0,TLE_LINE1,TLE_LINE2,SEMIMAJOR_AXIS,PERIOD,APOGEE,PERIGEE,DECAYED
51972.0,STARLINK-3671,PAYLOAD,2022-11-25 13:15:11,15.08839063,0.0002373,53.2187,16.7578,30.5469,329.5661,0.00011504,1.543e-05,0.0,0 STARLINK-3671,1 51972U 22025S   22329.55222113  .00001543  00000-0  11504-3 0  9991,2 51972  53.2187  16.7578 0002373  30.5469 329.5661 15.08839063 40029,6917.8830000000025,95.438,541.39,538.107,0.0
51972.0,STARLINK-3671,PAYLOAD,2022-11-26 13:05:58,15.08842713,0.0002436,53.2171,12.2968,27.3332,332.7787,0.0001197,1.617e-05,0.0,0 STARLINK-3671,1 51972U 22025S   22330.54581573  .00001617  00000-0  11970-3 0  9999,2 51972  53.2171  12.2968 0002436  27.3332 332.7787 15.08842713 41278,6917.871999999999,95.437,541.422,538.052,0.0
51972.0,STARLINK-3671,PAYLOAD,2022-11-27 08:10:36,15.08829067,0.0002547,53.2172,8.7284,20.7509,339.3586,-0.00015842,-2.808e-05,0.0,0 STARLINK-3671,1 51972U 22025S   22331.34069841 -.00002808  00000-0 -15842-3 0  9994,2 51972  53.2172   8.7284 0002547  20.7509 339.3586 15.08829067 41396,6917.9140000000025,95.438,541.5409999999998,538.0169999999998,0.0
51972.0,STARLINK-3671,PAYLOAD,2022-11-27 19:18:18,15.08836019,0.0002424,53.2178,6.6479,25.6821,334.4291,-3.6219e-05,-8.65e-06,0.0,0 STARLINK-3671,1 51972U 22025S   22331.80437704 -.00000865  00000-0 -36219-4 0  9995,2 51972  53.2178   6.6479 0002424  25.6821 334.4291 15.08836019 41462,6917.893,95.438,541.434,538.081,0.0
51972.0,STARLINK-3671,PAYLOAD,2022-11-28 11:12:09,15.08834659,0.0002508,53.2179,3.6739,27.5534,332.5591,-2.1798e-05,-6.35e-06,0.0,0 STARLINK-3671,1 51972U 22025S   22332.46677935 -.00000635  00000-0 -21798-4 0  9991,2 51972  53.2179   3.6739 0002508  27.5534 332.5591 15.08834659 40463,6917.897,95.438,541.497,538.0269999999998,0.0
51972.0,STARLINK-3671,PAYLOAD,2022-11-29 11:02:56,15.08847154,0.0002553,53.2174,359.2142,28.7239,331.3894,0.0004239,6.466e-05,0.0,0 STARLINK-3671,1 51972U 22025S   22333.46037912  .00006466  00000-0  42390-3 0  9993,2 51972  53.2174 359.2142 0002553  28.7239 331.3894 15.08847154 41717,6917.859,95.437,541.49,537.957,0.0
51972.0,STARLINK-3671,PAYLOAD,2022-11-29 18:59:52,15.0884362,0.0002739,53.2175,357.7274,29.426,330.6886,0.00034393,5.19e-05,0.0,0 STARLINK-3671,1 51972U 22025S   22333.79158174  .00005190  00000-0  34393-3 0  9990,2 51972  53.2175 357.7274 0002739  29.4260 330.6886 15.08843620 40665,6917.869000000002,95.437,541.629,537.84,0.0
51972.0,STARLINK-3671,PAYLOAD,2022-11-30 01:21:25,15.08837787,0.0002788999999999,53.2172,356.5383,31.6874,328.4286,0.00014728,2.056e-05,0.0,0 STARLINK-3671,1 51972U 22025S   22334.05654320  .00002056  00000-0  14728-3 0  9992,2 51972  53.2172 356.5383 0002789  31.6874 328.4286 15.08837787 41804,6917.887,95.438,541.682,537.823,0.0
51972.0,STARLINK-3671,PAYLOAD,2022-11-30 09:18:21,15.0883008,0.000256,53.2177,355.0508,31.2138,328.9006,-4.4775e-05,-1.001e-05,0.0,0 STARLINK-3671,1 51972U 22025S   22334.38774801 -.00001001  00000-0 -44775-4 0  9992,2 51972  53.2177 355.0508 0002560  31.2138 328.9006 15.08830080 41857,6917.911,95.438,541.547,538.005,0.0
51972.0,STARLINK-3671,PAYLOAD,2022-11-30 12:29:07,15.08834097,0.0002591,53.2179,354.4562,29.7639,330.35,3.039e-06,-2.4e-06,0.0,0 STARLINK-3671,1 51972U 22025S   22334.52022832 -.00000240  00000-0  30390-5 0  9990,2 51972  53.2179 354.4562 0002591  29.7639 330.3500 15.08834097 40772,6917.898,95.438,541.556,537.971,0.0
51972.0,STARLINK-3671,PAYLOAD,2022-11-30 18:50:40,15.08837374,0.0002611,53.2179,353.2667,30.2684,329.8459,0.00015741,2.218e-05,0.0,0 STARLINK-3671,1 51972U 22025S   22334.78518878  .00002218  00000-0  15741-3 0  9995,2 51972  53.2179 353.2667 0002611  30.2684 329.8459 15.08837374 40817,6917.888000000001,95.438,541.56,537.947,0.0
51972.0,STARLINK-3671,PAYLOAD,2022-12-01 12:19:54,15.08842357,0.0002626,53.2176,349.9956,30.4316,329.6828,0.00019486,2.814e-05,0.0,0 STARLINK-3671,1 51972U 22025S   22335.51382717  .00002814  00000-0  19486-3 0  9990,2 51972  53.2176 349.9956 0002626  30.4316 329.6828 15.08842357 40924,6917.873000000001,95.437,541.555,537.922,0.0
51972.0,STARLINK-3671,PAYLOAD,2022-12-01 18:41:27,15.08844563,0.0002666,53.2177,348.8062,31.0732,329.0418,0.00012329,1.675e-05,0.0,0 STARLINK-3671,1 51972U 22025S   22335.77878576  .00001675  00000-0  12329-3 0  9994,2 51972  53.2177 348.8062 0002666  31.0732 329.0418 15.08844563 42061,6917.866,95.437,541.576,537.887,0.0
51972.0,STARLINK-3671,PAYLOAD,2022-12-02 12:10:42,15.08837328,0.0002771,53.2179,345.5353,28.4254,331.6889,0.00012124,1.641e-05,0.0,0 STARLINK-3671,1 51972U 22025S   22336.50743069  .00001641  00000-0  12124-3 0  9990,2 51972  53.2179 345.5353 0002771  28.4254 331.6889 15.08837328 42170,6917.889,95.438,541.6709999999998,537.837,0.0
51972.0,STARLINK-3671,PAYLOAD,2022-12-03 12:01:29,15.08847018,0.000274,53.2182,341.0747,29.2049,330.9095,-0.00010939,-2.03e-05,0.0,0 STARLINK-3671,1 51972U 22025S   22337.50103017 -.00002030  00000-0 -10939-3 0  9991,2 51972  53.2182 341.0747 0002740  29.2049 330.9095 15.08847018 41222,6917.859,95.437,541.619,537.828,0.0
51972.0,STARLINK-3671,PAYLOAD,2022-12-04 02:19:56,15.08864969,0.0002537,53.2181,338.3985,27.9971,332.1157,-0.00025286,-4.313e-05,0.0,0 STARLINK-3671,1 51972U 22025S   22338.09718700 -.00004313  00000-0 -25286-3 0  9994,2 51972  53.2181 338.3985 0002537  27.9971 332.1157 15.08864969 42416,6917.804,95.436,541.424,537.914,0.0
51972.0,STARLINK-3671,PAYLOAD,2022-12-04 07:06:07,15.08833512,0.000269,53.2182,337.5063,28.7368,331.3772,6.4485e-05,7.38e-06,0.0,0 STARLINK-3671,1 51972U 22025S   22338.29591478  .00000738  00000-0  64485-4 0  9997,2 51972  53.2182 337.5063 0002690  28.7368 331.3772 15.08833512 42441,6917.9,95.438,541.626,537.904,0.0
51972.0,STARLINK-3671,PAYLOAD,2022-12-04 10:16:53,15.08837213,0.0002703,53.2181,336.9118,27.5696,332.5439,2.372e-05,8.9e-07,0.0,0 STARLINK-3671,1 51972U 22025S   22338.42839402  .00000089  00000-0  23720-4 0  9990,2 51972  53.2181 336.9118 0002703  27.5696 332.5439 15.08837213 41365,6917.889,95.438,541.624,537.884,0.0
51972.0,STARLINK-3671,PAYLOAD,2022-12-04 16:38:25,15.088412300000002,0.0002709,53.2181,335.7225,28.0036,332.1102,9.6914e-05,1.254e-05,0.0,0 STARLINK-3671,1 51972U 22025S   22338.69335001  .00001254  00000-0  96914-4 0  9995,2 51972  53.2181 335.7225 0002709  28.0036 332.1102 15.08841230 42505,6917.877,95.437,541.616,537.868,0.0
51972.0,STARLINK-3671,PAYLOAD,2022-12-05 00:35:19,15.08890797,0.0002991,53.2187,334.2353,23.712,336.4009,-0.00056952,-9.355e-05,0.0,0 STARLINK-3671,1 51972U 22025S   22339.02452806 -.00009355  00000-0 -56952-3 0  9995,2 51972  53.2187 334.2353 0002991  23.7120 336.4009 15.08890797 42556,6917.725,95.434,541.659,537.521,0.0
51972.0,STARLINK-3671,PAYLOAD,2022-12-05 10:07:40,15.08839558,0.0002673,53.2185,332.4512,27.7041,332.4093,0.00012089,1.636e-05,0.0,0 STARLINK-3671,1 51972U 22025S   22339.42199155  .00001636  00000-0  12089-3 0  9999,2 51972  53.2185 332.4512 0002673  27.7041 332.4093 15.08839558 42618,6917.882,95.438,541.596,537.898,0.0
51972.0,STARLINK-3671,PAYLOAD,2022-12-05 16:29:11,15.08849615,0.0002722,53.2184,331.2617,28.647,331.4671,0.00017498,2.498e-05,0.0,0 STARLINK-3671,1 51972U 22025S   22339.68694324  .00002498  00000-0  17498-3 0  9991,2 51972  53.2184 331.2617 0002722  28.6470 331.4671 15.08849615 42651,6917.851,95.437,541.599,537.8330000000002,0.0
51972.0,STARLINK-3671,PAYLOAD,2022-12-06 09:58:26,15.08842585,0.0002696,53.2194,327.9914,30.6464,329.4685,0.00012395,1.685e-05,0.0,0 STARLINK-3671,1 51972U 22025S   22340.41558760  .00001685  00000-0  12395-3 0  9995,2 51972  53.2194 327.9914 0002696  30.6464 329.4685 15.08842585 42763,6917.871999999999,95.437,541.6030000000002,537.872,0.0
51972.0,STARLINK-3671,PAYLOAD,2022-12-06 16:20:00,15.08834474,0.000278,53.2184,326.8016,30.5126,329.6028,7.680800000000001e-06,-1.66e-06,0.0,0 STARLINK-3671,1 51972U 22025S   22340.68055606 -.00000166  00000-0  76808-5 0  9990,2 51972  53.2184 326.8016 0002780  30.5126 329.6028 15.08834474 41705,6917.897,95.438,541.685,537.839,0.0
51972.0,STARLINK-3671,PAYLOAD,2022-12-07 16:10:47,15.08834685,0.0002871,53.2194,322.341,32.4914,327.6255,-2.1108e-05,-6.24e-06,0.0,0 STARLINK-3671,1 51972U 22025S   22341.67415795 -.00000624  00000-0 -21108-4 0  9991,2 51972  53.2194 322.3410 0002871  32.4914 327.6255 15.08834685 41852,6917.897,95.438,541.748,537.776,0.0
51972.0,STARLINK-3671,PAYLOAD,2022-12-08 04:53:51,15.08850473,0.0002892,53.2193,319.9623,34.5355,325.5825,7.6437e-05,9.28e-06,0.0,0 STARLINK-3671,1 51972U 22025S   22342.20406447  .00000928  00000-0  76437-4 0  9995,2 51972  53.2193 319.9623 0002892  34.5355 325.5825 15.08850473 41936,6917.848000000001,95.437,541.714,537.7130000000002,0.0
51972.0,STARLINK-3671,PAYLOAD,2022-12-08 16:01:32,15.0884913,0.0002959,53.2189,317.881,33.2176,326.9001,0.00017664,2.525e-05,0.0,0 STARLINK-3671,1 51972U 22025S   22342.66774010  .00002525  00000-0  17664-3 0  9990,2 51972  53.2189 317.8810 0002959  33.2176 326.9001 15.08849130 43107,6917.852,95.437,541.764,537.67,0.0
51972.0,STARLINK-3671,PAYLOAD,2022-12-09 07:55:22,15.08862934,0.0002469,53.2183,314.9104,20.6134,339.4958,0.0002322,3.411e-05,0.0,0 STARLINK-3671,1 51972U 22025S   22343.33012396  .00003411  00000-0  23220-3 0  9997,2 51972  53.2183 314.9104 0002469  20.6134 339.4958 15.08862934 43203,6917.81,95.436,541.383,537.967,0.0
51972.0,STARLINK-3671,PAYLOAD,2022-12-09 15:52:21,15.08813658,0.0002293,53.2184,313.4237,324.2254,35.8584,-0.00023619,-4.043e-05,0.0,0 STARLINK-3671,1 51972U 22025S   22343.66135759 -.00004043  00000-0 -23619-3 0  9998,2 51972  53.2184 313.4237 0002293 324.2254  35.8584 15.08813658 43252,6917.9609999999975,95.439,541.4119999999998,538.24,0.0
